ONEWEB-0029             
1 45445U 20020X   25124.83175284  .00000254  00000+0  68069-3 0  9990
2 45445  87.8807 102.4554 0001979  80.1140 280.0211 13.11418194249139
ONEWEB-0068             
1 45446U 20020Y   25124.43153682 -.00000501  00000+0 -14495-2 0  9995
2 45446  87.8806 102.5232 0001969  80.8676 279.2675 13.11417470249021
ONEWEB-0046             
1 45447U 20020Z   25124.88097401 -.00000668  00000+0 -19196-2 0  9998
2 45447  87.8806 102.4434 0002271  82.0305 278.1081 13.11416647249096
ONEWEB-0063             
1 45448U 20020AA  25124.83350637 -.00000019  00000+0 -89137-4 0  9991
2 45448  87.8805 102.4511 0002300  87.3499 272.7892 13.11418388249170
ONEWEB-0019             
1 45449U 20020AB  25124.88430241 -.00000487  00000+0 -14092-2 0  9992
2 45449  87.8810 102.4568 0001855  92.7385 267.3955 13.11416494249027
ONEWEB-0094             
1 45450U 20020AC  25124.82061082  .00000083  00000+0  18129-3 0  9997
2 45450  87.9039  87.1525 0002095  81.7785 278.3584 13.17651275252538
ONEWEB-0087             
1 45451U 20020AD  25124.84355583  .00000425  00000+0  11641-2 0  9993
2 45451  87.8799 102.4049 0002057  78.8626 281.2733 13.11417295249061
ONEWEB-0082             
1 45452U 20020AE  25124.84029588  .00000491  00000+0  13508-2 0  9994
2 45452  87.8806 102.4253 0001874  82.4752 277.6589 13.11416862249152
ONEWEB-0050             
1 45453U 20020AF  25124.87886000  .00002553  00000+0  25961-3 0  9996
2 45453  87.9959 306.3921 0003601  48.1277 312.0258 14.90431480279589
ONEWEB-0034             
1 45454U 20020AG  25124.86226118  .00000211  00000+0  55971-3 0  9997
2 45454  87.8803 102.4407 0002002  85.1289 275.0067 13.11418087249076
ONEWEB-0060             
1 45455U 20020AH  25124.90485976  .00000125  00000+0  31661-3 0  9996
2 45455  87.8810 102.4578 0002163  86.9682 273.1693 13.11418690249038
ONEWEB-0086             
1 45456U 20020AJ  25124.42996975 -.00000498  00000+0 -14398-2 0  9992
2 45456  87.8806 102.5256 0002023  74.7767 285.3585 13.11415592249035
ONEWEB-0088             
1 45457U 20020AK  25124.86572507  .00000073  00000+0  16937-3 0  9991
2 45457  87.8798 102.3902 0002112  82.6821 277.4547 13.11414054249021
ONEWEB-0102             
1 47258U 20100A   25124.80853249 -.00000379  00000+0 -10886-2 0  9997
2 47258  87.8870  71.9267 0001940  85.7030 274.4320 13.12444766211166
ONEWEB-0109             
1 47259U 20100B   25124.81661477 -.00000068  00000+0 -22526-3 0  9999
2 47259  87.8870  71.8937 0001928  85.5279 274.6070 13.12441912210993
ONEWEB-0110             
1 47260U 20100C   25124.84256840 -.00000635  00000+0 -18015-2 0  9995
2 47260  87.8863  71.8760 0001821  80.0635 280.0699 13.12444119211169
ONEWEB-0111             
1 47261U 20100D   25124.87340083 -.00000278  00000+0 -80686-3 0  9999
2 47261  87.8868  71.8814 0001987  83.7234 276.4121 13.12441898211006
ONEWEB-0114             
1 47262U 20100E   25124.82799355  .00000086  00000+0  20300-3 0  9997
2 47262  87.8864  71.8925 0002022  91.8085 268.3275 13.12443850210954
ONEWEB-0117             
1 47263U 20100F   25124.81987730  .00000031  00000+0  51176-4 0  9999
2 47263  87.8869  71.8833 0001985  80.2451 279.8901 13.12443587210965
ONEWEB-0118             
1 47264U 20100G   25124.85232115  .00000313  00000+0  83537-3 0  9992
2 47264  87.8868  71.8786 0002294  88.0684 272.0707 13.12440569211169
ONEWEB-0119             
1 47265U 20100H   25124.87988394 -.00000337  00000+0 -97119-3 0  9991
2 47265  87.8868  71.9118 0001943  81.9142 278.2207 13.12441349211149
ONEWEB-0120             
1 47266U 20100J   25124.82649201 -.00000104  00000+0 -32433-3 0  9998
2 47266  87.8869  71.9168 0001988  86.2047 273.9309 13.12443289211169
ONEWEB-0121             
1 47267U 20100K   25124.81501640 -.00000164  00000+0 -49231-3 0  9992
2 47267  87.8865  71.8931 0001870  79.4029 280.7310 13.12444133211074
ONEWEB-0122             
1 47268U 20100L   25124.81000571 -.00000394  00000+0 -11310-2 0  9991
2 47268  87.8864  71.8995 0001834  83.1241 277.0096 13.12443441210982
ONEWEB-0123             
1 47269U 20100M   25124.80526173 -.00000364  00000+0 -10469-2 0  9993
2 47269  87.8868  71.9252 0002076  82.9313 277.2051 13.12440710211126
ONEWEB-0124             
1 47270U 20100N   25124.87014750 -.00000263  00000+0 -76663-3 0  9992
2 47270  87.8869  71.9104 0002005  75.9758 284.1593 13.12440591211015
ONEWEB-0125             
1 47271U 20100P   25124.84745772  .00000397  00000+0  10676-2 0  9992
2 47271  87.8870  71.8775 0002257  77.7761 282.3620 13.12441501211073
ONEWEB-0126             
1 47272U 20100Q   25124.86867187 -.00000274  00000+0 -79836-3 0  9990
2 47272  87.8889  71.8759 0002031  85.3023 274.8337 13.12445483211144
ONEWEB-0127             
1 47273U 20100R   25124.83447778  .00000269  00000+0  71145-3 0  9995
2 47273  87.8868  71.9131 0001937  86.8784 273.2566 13.12443434211164
ONEWEB-0128             
1 47274U 20100S   25124.85719415  .00000134  00000+0  33604-3 0  9997
2 47274  87.8875  71.9316 0001736  81.0226 279.1099 13.12441756211186
ONEWEB-0129             
1 47275U 20100T   25124.83610836  .00000222  00000+0  58254-3 0  9999
2 47275  87.8868  71.8828 0002196 115.5778 244.5577 13.12443463211119
ONEWEB-0130             
1 47276U 20100U   25124.86366691 -.00000181  00000+0 -53766-3 0  9999
2 47276  87.8868  71.8795 0001859  81.7818 278.3521 13.12439855211087
ONEWEB-0131             
1 47277U 20100V   25124.86043246 -.00000032  00000+0 -12440-3 0  9997
2 47277  87.8870  71.9044 0001901  79.9807 280.1536 13.12441225211120
ONEWEB-0132             
1 47278U 20100W   25124.81337722 -.00000458  00000+0 -13094-2 0  9995
2 47278  87.8871  71.9149 0002071  75.5631 284.5727 13.12443410211010
ONEWEB-0133             
1 47279U 20100X   25124.82946088  .00000398  00000+0  10700-2 0  9990
2 47279  87.8864  71.8925 0001832  79.0293 281.1041 13.12446163211178
ONEWEB-0134             
1 47280U 20100Y   25124.87502314 -.00000400  00000+0 -11468-2 0  9995
2 47280  87.8863  71.8673 0001739  84.7993 275.3334 13.12442420211155
ONEWEB-0135             
1 47281U 20100Z   25124.84584037  .00000377  00000+0  10115-2 0  9994
2 47281  87.8867  71.9081 0001506  80.8958 279.2341 13.12443761211176
ONEWEB-0136             
1 47282U 20100AA  25124.86528628 -.00000184  00000+0 -54575-3 0  9998
2 47282  87.8869  71.8713 0001628  92.0558 268.0757 13.12440265211102
ONEWEB-0137             
1 47283U 20100AB  25124.82312017  .00000182  00000+0  47174-3 0  9991
2 47283  87.8864  71.8893 0002168  85.3183 274.8193 13.12443435211006
ONEWEB-0138             
1 47284U 20100AC  25124.87826176 -.00000707  00000+0 -20012-2 0  9999
2 47284  87.8864  71.8897 0001910  84.0929 276.0417 13.12443283211092
ONEWEB-0139             
1 47285U 20100AD  25124.84111458  .00000479  00000+0  12970-2 0  9995
2 47285  87.8870  71.8858 0001981  81.3443 278.7910 13.12441905211160
ONEWEB-0140             
1 47286U 20100AE  25124.87178099 -.00000323  00000+0 -93257-3 0  9991
2 47286  87.8864  71.8680 0001874  83.2121 276.9220 13.12442270211139
ONEWEB-0141             
1 47287U 20100AF  25124.84083864  .00000450  00000+0  12168-2 0  9994
2 47287  87.8866  71.8910 0002322  86.4167 273.7227 13.12442263211114
ONEWEB-0142             
1 47288U 20100AG  25124.82974813  .00000359  00000+0  96294-3 0  9997
2 47288  87.8883  71.8873 0002134  89.7220 270.4153 13.12443261211109
ONEWEB-0143             
1 47289U 20100AH  25124.83934648  .00000497  00000+0  13462-2 0  9999
2 47289  87.8867  71.8959 0002015  81.9553 278.1805 13.12441968211086
ONEWEB-0144             
1 47290U 20100AJ  25124.81175777 -.00000535  00000+0 -15222-2 0  9990
2 47290  87.8867  71.8829 0001961  90.9071 269.2282 13.12443595211008
ONEWEB-0145             
1 47291U 20100AK  25124.85881981  .00000055  00000+0  11830-3 0  9993
2 47291  87.8867  71.8993 0001964  84.4320 275.7032 13.12443041211202
ONEWEB-0146             
1 47292U 20100AL  25124.85556819  .00000195  00000+0  50787-3 0  9992
2 47292  87.8868  71.8862 0002015  70.7729 289.3617 13.12442043211119
ONEWEB-0147             
1 47293U 20100AM  25124.82148423 -.00000267  00000+0 -77772-3 0  9993
2 47293  87.8863  71.8743 0001734  84.7159 275.4167 13.12443696211001
ONEWEB-0115             
1 48042U 21025A   25124.78762489 -.00000195  00000+0 -56966-3 0  9994
2 48042  87.8988  41.3767 0001915  77.3559 282.7784 13.13469983199989
ONEWEB-0152             
1 48043U 21025B   25124.80116260 -.00000239  00000+0 -68941-3 0  9993
2 48043  87.8990  41.3855 0001875  76.4457 283.6881 13.13468451199946
ONEWEB-0153             
1 48044U 21025C   25124.77916295 -.00000119  00000+0 -36133-3 0  9991
2 48044  87.8994  41.3859 0001923  79.8916 280.2430 13.13469093199931
ONEWEB-0154             
1 48045U 21025D   25124.77577228  .00000031  00000+0  49653-4 0  9994
2 48045  87.8992  41.3877 0001845  77.9850 282.1486 13.13467615199894
ONEWEB-0116             
1 48046U 21025E   25124.81471511  .00000139  00000+0  34466-3 0  9992
2 48046  87.8992  41.3580 0001873  74.4915 285.6421 13.13469957200049
ONEWEB-0150             
1 48047U 21025F   25124.79100962  .00000051  00000+0  10396-3 0  9998
2 48047  87.8989  41.3632 0002036  79.4126 280.7233 13.13465891199930
ONEWEB-0107             
1 48048U 21025G   25124.86888544 -.00000297  00000+0 -84704-3 0  9994
2 48048  87.8988  41.3455 0001899  89.1152 271.0195 13.13469959199924
ONEWEB-0101             
1 48049U 21025H   25124.75546728  .00000053  00000+0  11087-3 0  9990
2 48049  87.8995  41.4035 0001791  82.2596 277.8736 13.13470225199883
ONEWEB-0113             
1 48050U 21025J   25124.78125147 -.00000152  00000+0 -44683-3 0  9993
2 48050  87.8991  41.3636 0002008  75.2393 284.8959 13.13970842199971
ONEWEB-0112             
1 48051U 21025K   25124.87396282 -.00000244  00000+0 -70360-3 0  9997
2 48051  87.8987  41.3416 0001996  79.4415 280.6939 13.13470619199990
